[
  {
    "COMMENT": "GENERATED VIA SPACETRACK.ORG API",
    "ORIGINATOR": "18 SPCS",
    "NORAD_CAT_ID": "43682",
    "OBJECT_NAME": "H-2A R/B",
    "OBJECT_TYPE": "ROCKET BODY",
    "CLASSIFICATION_TYPE": "U",
    "INTLDES": "18084L",
    "EPOCH": "2019-09-08 04:55:36",
    "EPOCH_MICROSECONDS": "6240",
    "MEAN_MOTION": "15.0264348",
    "ECCENTRICITY": "0.0057427",
    "INCLINATION": "98.8909",
    "RA_OF_ASC_NODE": "51.4352",
    "ARG_OF_PERICENTER": "341.4377",
    "MEAN_ANOMALY": "18.4747",
    "EPHEMERIS_TYPE": "0",
    "ELEMENT_SET_NO": "999",
    "REV_AT_EPOCH": "4711",
    "BSTAR": "0.000021866",
    "MEAN_MOTION_DOT": "0.00000217",
    "MEAN_MOTION_DDOT": "0",
    "FILE": "2595518",
    "TLE_LINE0": "0 H-2A R/B",
    "TLE_LINE1": "1 43682U 18084L   19251.20527785  .00000217  00000-0  21866-4 0  9995",
    "TLE_LINE2": "2 43682  98.8909  51.4352 0057427 341.4377  18.4747 15.02643480 47119",
    "OBJECT_ID": "2018-084L",
    "OBJECT_NUMBER": "43682",
    "SEMIMAJOR_AXIS": "6936.886",
    "PERIOD": "95.831",
    "APOGEE": "598.587",
    "PERIGEE": "518.914",
    "DECAYED": "0"
  },
  {
    "COMMENT": "GENERATED VIA SPACETRACK.ORG API",
    "ORIGINATOR": "18 SPCS",
    "NORAD_CAT_ID": "43682",
    "OBJECT_NAME": "H-2A R/B",
    "OBJECT_TYPE": "ROCKET BODY",
    "CLASSIFICATION_TYPE": "U",
    "INTLDES": "18084L",
    "EPOCH": "2019-09-08 22:30:22",
    "EPOCH_MICROSECONDS": "292928",
    "MEAN_MOTION": "15.02644604",
    "ECCENTRICITY": "0.0057443",
    "INCLINATION": "98.8909",
    "RA_OF_ASC_NODE": "52.2748",
    "ARG_OF_PERICENTER": "339.0117",
    "MEAN_ANOMALY": "20.8746",
    "EPHEMERIS_TYPE": "0",
    "ELEMENT_SET_NO": "999",
    "REV_AT_EPOCH": "4722",
    "BSTAR": "0.000028843",
    "MEAN_MOTION_DOT": "0.00000313",
    "MEAN_MOTION_DDOT": "0",
    "FILE": "2596200",
    "TLE_LINE0": "0 H-2A R/B",
    "TLE_LINE1": "1 43682U 18084L   19251.93775802 +.00000313 +00000-0 +28843-4 0  9999",
    "TLE_LINE2": "2 43682 098.8909 052.2748 0057443 339.0117 020.8746 15.02644604047227",
    "OBJECT_ID": "2018-084L",
    "OBJECT_NUMBER": "43682",
    "SEMIMAJOR_AXIS": "6936.882",
    "PERIOD": "95.831",
    "APOGEE": "598.595",
    "PERIGEE": "518.900",
    "DECAYED": "0"
  },
  {
    "COMMENT": "GENERATED VIA SPACETRACK.ORG API",
    "ORIGINATOR": "18 SPCS",
    "NORAD_CAT_ID": "43682",
    "OBJECT_NAME": "H-2A R/B",
    "OBJECT_TYPE": "ROCKET BODY",
    "CLASSIFICATION_TYPE": "U",
    "INTLDES": "18084L",
    "EPOCH": "2019-09-09 09:41:35",
    "EPOCH_MICROSECONDS": "316672",
    "MEAN_MOTION": "15.02645992",
    "ECCENTRICITY": "0.0057508",
    "INCLINATION": "98.891",
    "RA_OF_ASC_NODE": "52.8094",
    "ARG_OF_PERICENTER": "337.3784",
    "MEAN_ANOMALY": "22.4926",
    "EPHEMERIS_TYPE": "0",
    "ELEMENT_SET_NO": "999",
    "REV_AT_EPOCH": "4729",
    "BSTAR": "0.000040179",
    "MEAN_MOTION_DOT": "0.0000047",
    "MEAN_MOTION_DDOT": "0",
    "FILE": "2596473",
    "TLE_LINE0": "0 H-2A R/B",
    "TLE_LINE1": "1 43682U 18084L   19252.40388098  .00000470  00000-0  40179-4 0  9999",
    "TLE_LINE2": "2 43682  98.8910  52.8094 0057508 337.3784  22.4926 15.02645992 47298",
    "OBJECT_ID": "2018-084L",
    "OBJECT_NUMBER": "43682",
    "SEMIMAJOR_AXIS": "6936.878",
    "PERIOD": "95.831",
    "APOGEE": "598.636",
    "PERIGEE": "518.850",
    "DECAYED": "0"
  },
  {
    "COMMENT": "GENERATED VIA SPACETRACK.ORG API",
    "ORIGINATOR": "18 SPCS",
    "NORAD_CAT_ID": "43682",
    "OBJECT_NAME": "H-2A R/B",
    "OBJECT_TYPE": "ROCKET BODY",
    "CLASSIFICATION_TYPE": "U",
    "INTLDES": "18084L",
    "EPOCH": "2019-09-09 22:28:41",
    "EPOCH_MICROSECONDS": "649888",
    "MEAN_MOTION": "15.02646636",
    "ECCENTRICITY": "0.0057513",
    "INCLINATION": "98.891",
    "RA_OF_ASC_NODE": "53.4199",
    "ARG_OF_PERICENTER": "335.6291",
    "MEAN_ANOMALY": "24.2213",
    "EPHEMERIS_TYPE": "0",
    "ELEMENT_SET_NO": "999",
    "REV_AT_EPOCH": "4737",
    "BSTAR": "0.000040709",
    "MEAN_MOTION_DOT": "0.00000477",
    "MEAN_MOTION_DDOT": "0",
    "FILE": "2596869",
    "TLE_LINE0": "0 H-2A R/B",
    "TLE_LINE1": "1 43682U 18084L   19252.93659317 +.00000477 +00000-0 +40709-4 0  9998",
    "TLE_LINE2": "2 43682 098.8910 053.4199 0057513 335.6291 024.2213 15.02646636047375",
    "OBJECT_ID": "2018-084L",
    "OBJECT_NUMBER": "43682",
    "SEMIMAJOR_AXIS": "6936.876",
    "PERIOD": "95.831",
    "APOGEE": "598.637",
    "PERIGEE": "518.845",
    "DECAYED": "0"
  },
  {
    "COMMENT": "GENERATED VIA SPACETRACK.ORG API",
    "ORIGINATOR": "18 SPCS",
    "NORAD_CAT_ID": "43682",
    "OBJECT_NAME": "H-2A R/B",
    "OBJECT_TYPE": "ROCKET BODY",
    "CLASSIFICATION_TYPE": "U",
    "INTLDES": "18084L",
    "EPOCH": "2019-09-10 22:27:00",
    "EPOCH_MICROSECONDS": "901440",
    "MEAN_MOTION": "15.02648932",
    "ECCENTRICITY": "0.0057562",
    "INCLINATION": "98.8909",
    "RA_OF_ASC_NODE": "54.5649",
    "ARG_OF_PERICENTER": "332.3086",
    "MEAN_ANOMALY": "27.5072",
    "EPHEMERIS_TYPE": "0",
    "ELEMENT_SET_NO": "999",
    "REV_AT_EPOCH": "4752",
    "BSTAR": "0.000051984",
    "MEAN_MOTION_DOT": "0.00000633",
    "MEAN_MOTION_DDOT": "0",
    "FILE": "2597378",
    "TLE_LINE0": "0 H-2A R/B",
    "TLE_LINE1": "1 43682U 18084L   19253.93542710 +.00000633 +00000-0 +51984-4 0  9998",
    "TLE_LINE2": "2 43682 098.8909 054.5649 0057562 332.3086 027.5072 15.02648932047522",
    "OBJECT_ID": "2018-084L",
    "OBJECT_NUMBER": "43682",
    "SEMIMAJOR_AXIS": "6936.869",
    "PERIOD": "95.831",
    "APOGEE": "598.664",
    "PERIGEE": "518.804",
    "DECAYED": "0"
  },
  {
    "COMMENT": "GENERATED VIA SPACETRACK.ORG API",
    "ORIGINATOR": "18 SPCS",
    "NORAD_CAT_ID": "43682",
    "OBJECT_NAME": "H-2A R/B",
    "OBJECT_TYPE": "ROCKET BODY",
    "CLASSIFICATION_TYPE": "U",
    "INTLDES": "18084L",
    "EPOCH": "2019-09-11 04:50:34",
    "EPOCH_MICROSECONDS": "46880",
    "MEAN_MOTION": "15.02649288",
    "ECCENTRICITY": "0.0057561",
    "INCLINATION": "98.8915",
    "RA_OF_ASC_NODE": "54.8712",
    "ARG_OF_PERICENTER": "331.4446",
    "MEAN_ANOMALY": "28.3627",
    "EPHEMERIS_TYPE": "0",
    "ELEMENT_SET_NO": "999",
    "REV_AT_EPOCH": "4756",
    "BSTAR": "0.000052387",
    "MEAN_MOTION_DOT": "0.00000638",
    "MEAN_MOTION_DDOT": "0",
    "FILE": "2597488",
    "TLE_LINE0": "0 H-2A R/B",
    "TLE_LINE1": "1 43682U 18084L   19254.20178295  .00000638  00000-0  52387-4 0  9995",
    "TLE_LINE2": "2 43682  98.8915  54.8712 0057561 331.4446  28.3627 15.02649288 47566",
    "OBJECT_ID": "2018-084L",
    "OBJECT_NUMBER": "43682",
    "SEMIMAJOR_AXIS": "6936.868",
    "PERIOD": "95.831",
    "APOGEE": "598.662",
    "PERIGEE": "518.804",
    "DECAYED": "0"
  },
  {
    "COMMENT": "GENERATED VIA SPACETRACK.ORG API",
    "ORIGINATOR": "18 SPCS",
    "NORAD_CAT_ID": "43682",
    "OBJECT_NAME": "H-2A R/B",
    "OBJECT_TYPE": "ROCKET BODY",
    "CLASSIFICATION_TYPE": "U",
    "INTLDES": "18084L",
    "EPOCH": "2019-09-11 22:25:20",
    "EPOCH_MICROSECONDS": "108064",
    "MEAN_MOTION": "15.02650914",
    "ECCENTRICITY": "0.0057601",
    "INCLINATION": "98.8915",
    "RA_OF_ASC_NODE": "55.7109",
    "ARG_OF_PERICENTER": "329.0322",
    "MEAN_ANOMALY": "30.7507",
    "EPHEMERIS_TYPE": "0",
    "ELEMENT_SET_NO": "999",
    "REV_AT_EPOCH": "4767",
    "BSTAR": "0.000057949",
    "MEAN_MOTION_DOT": "0.00000715",
    "MEAN_MOTION_DDOT": "0",
    "FILE": "2599735",
    "TLE_LINE0": "0 H-2A R/B",
    "TLE_LINE1": "1 43682U 18084L   19254.93426051 +.00000715 +00000-0 +57949-4 0  9996",
    "TLE_LINE2": "2 43682 098.8915 055.7109 0057601 329.0322 030.7507 15.02650914047671",
    "OBJECT_ID": "2018-084L",
    "OBJECT_NUMBER": "43682",
    "SEMIMAJOR_AXIS": "6936.863",
    "PERIOD": "95.831",
    "APOGEE": "598.685",
    "PERIGEE": "518.771",
    "DECAYED": "0"
  },
  {
    "COMMENT": "GENERATED VIA SPACETRACK.ORG API",
    "ORIGINATOR": "18 SPCS",
    "NORAD_CAT_ID": "43682",
    "OBJECT_NAME": "H-2A R/B",
    "OBJECT_TYPE": "ROCKET BODY",
    "CLASSIFICATION_TYPE": "U",
    "INTLDES": "18084L",
    "EPOCH": "2019-09-12 12:48:19",
    "EPOCH_MICROSECONDS": "562400",
    "MEAN_MOTION": "15.02652491",
    "ECCENTRICITY": "0.0057568",
    "INCLINATION": "98.8913",
    "RA_OF_ASC_NODE": "56.3975",
    "ARG_OF_PERICENTER": "327.0689",
    "MEAN_ANOMALY": "32.6959",
    "EPHEMERIS_TYPE": "0",
    "ELEMENT_SET_NO": "999",
    "REV_AT_EPOCH": "4776",
    "BSTAR": "0.00006442",
    "MEAN_MOTION_DOT": "0.00000805",
    "MEAN_MOTION_DDOT": "0",
    "FILE": "2600143",
    "TLE_LINE0": "0 H-2A R/B",
    "TLE_LINE1": "1 43682U 18084L   19255.53355975  .00000805  00000-0  64420-4 0  9991",
    "TLE_LINE2": "2 43682  98.8913  56.3975 0057568 327.0689  32.6959 15.02652491 47767",
    "OBJECT_ID": "2018-084L",
    "OBJECT_NUMBER": "43682",
    "SEMIMAJOR_AXIS": "6936.858",
    "PERIOD": "95.831",
    "APOGEE": "598.657",
    "PERIGEE": "518.789",
    "DECAYED": "0"
  },
  {
    "COMMENT": "GENERATED VIA SPACETRACK.ORG API",
    "ORIGINATOR": "18 SPCS",
    "NORAD_CAT_ID": "43682",
    "OBJECT_NAME": "H-2A R/B",
    "OBJECT_TYPE": "ROCKET BODY",
    "CLASSIFICATION_TYPE": "U",
    "INTLDES": "18084L",
    "EPOCH": "2019-09-12 22:23:39",
    "EPOCH_MICROSECONDS": "185088",
    "MEAN_MOTION": "15.02653348",
    "ECCENTRICITY": "0.0057591",
    "INCLINATION": "98.8914",
    "RA_OF_ASC_NODE": "56.8557",
    "ARG_OF_PERICENTER": "325.7824",
    "MEAN_ANOMALY": "33.9691",
    "EPHEMERIS_TYPE": "0",
    "ELEMENT_SET_NO": "999",
    "REV_AT_EPOCH": "4782",
    "BSTAR": "0.000066166",
    "MEAN_MOTION_DOT": "0.00000829",
    "MEAN_MOTION_DDOT": "0",
    "FILE": "2600416",
    "TLE_LINE0": "0 H-2A R/B",
    "TLE_LINE1": "1 43682U 18084L   19255.93309242 +.00000829 +00000-0 +66166-4 0  9996",
    "TLE_LINE2": "2 43682 098.8914 056.8557 0057591 325.7824 033.9691 15.02653348047827",
    "OBJECT_ID": "2018-084L",
    "OBJECT_NUMBER": "43682",
    "SEMIMAJOR_AXIS": "6936.855",
    "PERIOD": "95.830",
    "APOGEE": "598.670",
    "PERIGEE": "518.770",
    "DECAYED": "0"
  }
]